NORAD_CAT_ID,OBJECT_NAME,OBJECT_TYPE,EPOCH,MEAN_MOTION,ECCENTRICITY,INCLINATION,RA_OF_ASC_NODE,ARG_OF_PERICENTER,MEAN_ANOMALY,BSTAR,MEAN_MOTION_DOT,MEAN_MOTION_DDOT,TLE_LINE0,TLE_LINE1,TLE_LINE2,SEMIMAJOR_AXIS,PERIOD,APOGEE,PERIGEE,DECAYED
53009.0,STARLINK-4277,PAYLOAD,2024-03-31 12:46:41,15.08852371,0.0001522,53.2173,23.1598,84.6293,275.4873,5.1787e-05,5.37e-06,0.0,0 STARLINK-4277,1 53009U 22076Z   24091.53242403  .00000537  00000-0  51787-4 0  9990,2 53009  53.2173  23.1598 0001522  84.6293 275.4873 15.08852371 96078,6917.843,95.437,540.76,538.655,0.0
53009.0,STARLINK-4277,PAYLOAD,2024-04-01 12:37:28,15.08842156,0.0001541,53.2195,18.6978,92.5176,267.5993,-3.1414e-05,-7.88e-06,0.0,0 STARLINK-4277,1 53009U 22076Z   24092.52601959 -.00000788  00000-0 -31414-4 0  9990,2 53009  53.2195  18.6978 0001541  92.5176 267.5993 15.08842156 96695,6917.874,95.437,540.805,538.673,0.0
53009.0,STARLINK-4277,PAYLOAD,2024-04-02 04:31:19,15.08841066,0.0001748,53.2183,15.7239,89.1588,270.9604,-3.1465e-06,-3.38e-06,0.0,0 STARLINK-4277,1 53009U 22076Z   24093.18842271 -.00000338  00000-0 -31465-5 0  9995,2 53009  53.2183  15.7239 0001748  89.1588 270.9604 15.08841066 96324,6917.877,95.437,540.951,538.533,0.0
53009.0,STARLINK-4277,PAYLOAD,2024-04-03 04:22:06,15.08842465,0.000172,53.2199,11.2635,100.1192,259.9994,3.4096e-06,-2.34e-06,0.0,0 STARLINK-4277,1 53009U 22076Z   24094.18202393 -.00000234  00000-0  34096-5 0  9998,2 53009  53.2199  11.2635 0001720 100.1192 259.9994 15.08842465 96948,6917.873,95.437,540.928,538.548,0.0
53009.0,STARLINK-4277,PAYLOAD,2024-04-03 18:40:35,15.08836608,0.0001687,53.2198,8.587,90.4676,269.6509,0.00015387,2.161e-05,0.0,0 STARLINK-4277,1 53009U 22076Z   24094.77818903  .00002161  00000-0  15387-3 0  9993,2 53009  53.2198   8.5870 0001687  90.4676 269.6509 15.08836608 96567,6917.891,95.438,540.923,538.589,0.0
53009.0,STARLINK-4277,PAYLOAD,2024-04-04 10:34:26,15.0884188,0.0001459,53.2193,5.6138,88.9985,271.1175,9.6697e-05,1.251e-05,0.0,0 STARLINK-4277,1 53009U 22076Z   24095.44058653  .00001251  00000-0  96697-4 0  9999,2 53009  53.2193   5.6138 0001459  88.9985 271.1175 15.08841880 97138,6917.875,95.437,540.749,538.73,0.0
53009.0,STARLINK-4277,PAYLOAD,2024-04-04 21:42:09,15.0883587,0.0001539,53.2199,3.5339,89.3064,270.8104,7.6592e-05,9.31e-06,0.0,0 STARLINK-4277,1 53009U 22076Z   24095.90427267  .00000931  00000-0  76592-4 0  9997,2 53009  53.2199   3.5339 0001539  89.3064 270.8104 15.08835870 96731,6917.893,95.438,540.823,538.693,0.0
53009.0,STARLINK-4277,PAYLOAD,2024-04-05 10:25:14,15.08834562,0.0001597,53.22,1.1553,95.1402,264.9773,0.00018203,2.61e-05,0.0,0 STARLINK-4277,1 53009U 22076Z   24096.43419259  .00002610  00000-0  18203-3 0  9998,2 53009  53.2200   1.1553 0001597  95.1402 264.9773 15.08834562 97285,6917.897,95.438,540.867,538.657,0.0
53009.0,STARLINK-4277,PAYLOAD,2024-04-05 21:32:55,15.08842,0.0001462,53.2202,359.0737,90.7979,269.3181,0.00011587,1.557e-05,0.0,0 STARLINK-4277,1 53009U 22076Z   24096.89786783  .00001557  00000-0  11587-3 0  9994,2 53009  53.2202 359.0737 0001462  90.7979 269.3181 15.08842000 96880,6917.874,95.437,540.751,538.728,0.0
53009.0,STARLINK-4277,PAYLOAD,2024-04-06 02:19:04,15.08851688,0.0001877,53.2208,358.1816,99.8563,260.2641,4.7297e-05,4.65e-06,0.0,0 STARLINK-4277,1 53009U 22076Z   24097.09658258  .00000465  00000-0  47297-4 0  9997,2 53009  53.2208 358.1816 0001877  99.8563 260.2641 15.08851688 97382,6917.845,95.437,541.008,538.411,0.0
53009.0,STARLINK-4277,PAYLOAD,2024-04-06 10:16:00,15.08843185,0.000188,53.2218,356.6935,79.52,280.6004,9.2647e-05,1.187e-05,0.0,0 STARLINK-4277,1 53009U 22076Z   24097.42778849  .00001187  00000-0  92647-4 0  9994,2 53009  53.2218 356.6935 0001880  79.5200 280.6004 15.08843185 97433,6917.871,95.437,541.036,538.435,0.0
53009.0,STARLINK-4277,PAYLOAD,2024-04-06 22:59:06,15.08834868,0.000179,53.2221,354.3195,98.0713,262.0482,-0.00010381,-1.94e-05,0.0,0 STARLINK-4277,1 53009U 22076Z   24097.95771147 -.00001940  00000-0 -10381-3 0  9999,2 53009  53.2221 354.3195 0001790  98.0713 262.0482 15.08834868 97044,6917.896,95.438,540.999,538.523,0.0
53009.0,STARLINK-4277,PAYLOAD,2024-04-07 10:06:47,15.08854059,0.0001457,53.2203,352.2372,85.4876,274.6282,8.8702e-05,1.125e-05,0.0,0 STARLINK-4277,1 53009U 22076Z   24098.42138003  .00001125  00000-0  88702-4 0  9996,2 53009  53.2203 352.2372 0001457  85.4876 274.6282 15.08854059 97588,6917.837,95.437,540.71,538.694,0.0
53009.0,STARLINK-4277,PAYLOAD,2024-04-07 22:49:51,15.08858417,0.0001258,53.2186,349.8592,97.3808,262.7327,0.0001884,2.713e-05,0.0,0 STARLINK-4277,1 53009U 22076Z   24098.95129189  .00002713  00000-0  18840-3 0  9998,2 53009  53.2186 349.8592 0001258  97.3808 262.7327 15.08858417 97197,6917.824,95.436,540.559,538.819,0.0
53009.0,STARLINK-4277,PAYLOAD,2024-04-08 09:57:34,15.08841196,0.0001684,53.2207,347.7757,80.2079,279.9103,-2.789e-05,-7.32e-06,0.0,0 STARLINK-4277,1 53009U 22076Z   24099.41498156 -.00000732  00000-0 -27890-4 0  9990,2 53009  53.2207 347.7757 0001684  80.2079 279.9103 15.08841196 97733,6917.877,95.437,540.907,538.577,0.0
53009.0,STARLINK-4277,PAYLOAD,2024-04-08 22:40:39,15.08837037,0.0002047,53.2195,345.3965,82.6023,277.5202,5.8569e-05,6.44e-06,0.0,0 STARLINK-4277,1 53009U 22076Z   24099.94490734  .00000644  00000-0  58569-4 0  9999,2 53009  53.2195 345.3965 0002047  82.6023 277.5202 15.08837037 97343,6917.889,95.438,541.171,538.338,0.0
53009.0,STARLINK-4277,PAYLOAD,2024-04-09 01:51:26,15.0883077,0.0001577,53.2201,344.7998,90.6998,269.4174,-7.3041e-05,-1.45e-05,0.0,0 STARLINK-4277,1 53009U 22076Z   24100.07739022 -.00001450  00000-0 -73041-4 0  9992,2 53009  53.2201 344.7998 0001577  90.6998 269.4174 15.08830770 97836,6917.909,95.438,540.865,538.683,0.0
53009.0,STARLINK-4277,PAYLOAD,2024-04-09 09:48:22,15.08832589,0.0001599,53.2202,343.3136,90.0419,270.0756,-4.385e-05,-9.86e-06,0.0,0 STARLINK-4277,1 53009U 22076Z   24100.40859089 -.00000986  00000-0 -43850-4 0  9993,2 53009  53.2202 343.3136 0001599  90.0419 270.0756 15.08832589 97410,6917.903,95.438,540.874,538.662,0.0
53009.0,STARLINK-4277,PAYLOAD,2024-04-09 22:31:26,15.08845758,0.0001193,53.2203,340.9343,95.6236,264.4892,2.9814e-05,1.87e-06,0.0,0 STARLINK-4277,1 53009U 22076Z   24100.93850401  .00000187  00000-0  29814-4 0  9995,2 53009  53.2203 340.9343 0001193  95.6236 264.4892 15.08845758 97490,6917.863,95.437,540.553,538.902,0.0
53009.0,STARLINK-4277,PAYLOAD,2024-04-10 20:46:51,15.08832579,0.0001447,53.2184,336.7716,89.5778,270.538,0.00021,3.055e-05,0.0,0 STARLINK-4277,1 53009U 22076Z   24101.86587692  .00003055  00000-0  21000-3 0  9992,2 53009  53.2184 336.7716 0001447  89.5778 270.5380 15.08832579 98106,6917.903,95.438,540.769,538.767,0.0
53009.0,STARLINK-4277,PAYLOAD,2024-04-10 22:22:14,15.08835182,0.0001472,53.2184,336.4728,96.5912,263.5248,0.00023545,3.461e-05,0.0,0 STARLINK-4277,1 53009U 22076Z   24101.93211576  .00003461  00000-0  23545-3 0  9992,2 53009  53.2184 336.4728 0001472  96.5912 263.5248 15.08835182 97648,6917.895,95.438,540.778,538.742,0.0
53009.0,STARLINK-4277,PAYLOAD,2024-04-11 22:13:01,15.08845374,0.0001244,53.218,332.0166,93.3482,266.7652,0.00021545,3.143e-05,0.0,0 STARLINK-4277,1 53009U 22076Z   24102.92571204  .00003143  00000-0  21545-3 0  9994,2 53009  53.2180 332.0166 0001244  93.3482 266.7652 15.08845374 98263,6917.864,95.437,540.59,538.868,0.0
53009.0,STARLINK-4277,PAYLOAD,2024-04-12 23:39:12,15.08838316,0.0001387,53.2183,327.2598,98.7063,261.4086,4.4154e-05,4.15e-06,0.0,0 STARLINK-4277,1 53009U 22076Z   24103.98555573  .00000415  00000-0  44154-4 0  9993,2 53009  53.2183 327.2598 0001387  98.7063 261.4086 15.08838316 98422,6917.886,95.438,540.71,538.791,0.0
53009.0,STARLINK-4277,PAYLOAD,2024-04-13 20:19:11,15.08854651,0.0001664,53.218,323.3914,133.6552,226.4578,0.00016412,2.326e-05,0.0,0 STARLINK-4277,1 53009U 22076Z   24104.84666466  .00002326  00000-0  16412-3 0  9991,2 53009  53.2180 323.3914 0001664 133.6552 226.4578 15.08854651 98559,6917.836,95.437,540.852,538.549,0.0
53009.0,STARLINK-4277,PAYLOAD,2024-04-14 20:09:59,15.08839576,0.0001072,53.2179,318.9266,131.8692,228.2391,0.00017832,2.551e-05,0.0,0 STARLINK-4277,1 53009U 22076Z   24105.84027418  .00002551  00000-0  17832-3 0  9997,2 53009  53.2179 318.9266 0001072 131.8692 228.2391 15.08839576 98704,6917.882,95.438,540.488,539.005,0.0
53009.0,STARLINK-4277,PAYLOAD,2024-04-14 21:45:22,15.08841264,0.0001014,53.2186,318.6294,79.519,280.5917,0.00020329,2.949e-05,0.0,0 STARLINK-4277,1 53009U 22076Z   24105.90651609  .00002949  00000-0  20329-3 0  9995,2 53009  53.2186 318.6294 0001014  79.5190 280.5917 15.08841264 98248,6917.877,95.437,540.443,539.04,0.0
53009.0,STARLINK-4277,PAYLOAD,2024-04-15 13:39:14,15.08841894,0.0001769,53.2182,315.6586,143.4153,216.6961,-4.4383e-06,-3.59e-06,0.0,0 STARLINK-4277,1 53009U 22076Z   24106.56891782 -.00000359  00000-0 -44383-5 0  9999,2 53009  53.2182 315.6586 0001769 143.4153 216.6961 15.08841894 98341,6917.875,95.437,540.963,538.516,0.0
53009.0,STARLINK-4277,PAYLOAD,2024-04-15 20:00:47,15.08839464,0.0001224,53.2179,314.4701,129.2022,230.9079,0.00016503,2.34e-05,0.0,0 STARLINK-4277,1 53009U 22076Z   24106.83387947  .00002340  00000-0  16503-3 0  9993,2 53009  53.2179 314.4701 0001224 129.2022 230.9079 15.08839464 98851,6917.882,95.438,540.594,538.9,0.0
53009.0,STARLINK-4277,PAYLOAD,2024-04-16 07:08:29,15.08838041,0.0001336,53.2159,312.3875,95.8666,264.2478,0.00012479,1.699e-05,0.0,0 STARLINK-4277,1 53009U 22076Z   24107.29755985  .00001699  00000-0  12479-3 0  9999,2 53009  53.2159 312.3875 0001336  95.8666 264.2478 15.08838041 98453,6917.886,95.438,540.676,538.827,0.0
53009.0,STARLINK-4277,PAYLOAD,2024-04-16 19:51:34,15.08849675,0.0001402,53.2162,310.0119,77.0194,283.0955,0.00030933,4.64e-05,0.0,0 STARLINK-4277,1 53009U 22076Z   24107.82747773  .00004640  00000-0  30933-3 0  9998,2 53009  53.2162 310.0119 0001402  77.0194 283.0955 15.08849675 98538,6917.851,95.437,540.686,538.746,0.0
